[
    {
        "CCSDS_OMM_VERS": "3.0",
        "COMMENT": "GENERATED VIA SPACE-TRACK.ORG API",
        "CREATION_DATE": "2025-05-04T02:26:54",
        "ORIGINATOR": "18 SPCS",
        "OBJECT_NAME": "QZS-1R",
        "OBJECT_ID": "2021-096A",
        "CENTER_NAME": "EARTH",
        "REF_FRAME": "TEME",
        "TIME_SYSTEM": "UTC",
        "MEAN_ELEMENT_THEORY": "SGP4",
        "EPOCH": "2025-05-03T18:24:14.823072",
        "MEAN_MOTION": "1.00269493",
        "ECCENTRICITY": "0.07537470",
        "INCLINATION": "36.6145",
        "RA_OF_ASC_NODE": "85.6801",
        "ARG_OF_PERICENTER": "270.8265",
        "MEAN_ANOMALY": "278.0535",
        "EPHEMERIS_TYPE": "0",
        "CLASSIFICATION_TYPE": "U",
        "NORAD_CAT_ID": "49336",
        "ELEMENT_SET_NO": "999",
        "REV_AT_EPOCH": "1290",
        "BSTAR": "0.00000000000000",
        "MEAN_MOTION_DOT": "-0.00000237",
        "MEAN_MOTION_DDOT": "0.0000000000000",
        "SEMIMAJOR_AXIS": "42165.375",
        "PERIOD": "1436.130",
        "APOAPSIS": "38965.442",
        "PERIAPSIS": "32609.037",
        "OBJECT_TYPE": "PAYLOAD",
        "RCS_SIZE": "LARGE",
        "COUNTRY_CODE": "JPN",
        "LAUNCH_DATE": "2021-10-26",
        "SITE": "TNSTA",
        "DECAY_DATE": null,
        "FILE": "4718307",
        "GP_ID": "286802247",
        "TLE_LINE0": "0 QZS-1R",
        "TLE_LINE1": "1 49336U 21096A   25123.76683823 -.00000237  00000-0  00000-0 0  9992",
        "TLE_LINE2": "2 49336  36.6145  85.6801 0753747 270.8265 278.0535  1.00269493 12909"
    }
]